{
  "norad_id": 43488,
  "name": "SES-12",
  "history": [
    {
      "epoch": "2026-05-03T14:36:22.480992Z",
      "apogee_km": 35791.08701645287,
      "perigee_km": 35781.59157639091,
      "latitude_deg": 0.008354918440296425,
      "longitude_deg": 94.99785566405858,
      "height_km": 35789.751589053885,
      "semi_major_axis_km": 42164.47629642189,
      "eccentricity": 0.0001126,
      "inclination_deg": 0.05,
      "raan_deg": 74.9049,
      "arg_perigee_deg": 246.7645,
      "mean_anomaly_deg": 213.9452,
      "mean_motion_rev_day": 1.00272697
    },
    {
      "epoch": "2026-05-04T19:33:38.801088Z",
      "apogee_km": 35791.14233330246,
      "perigee_km": 35782.658727751324,
      "latitude_deg": -0.020602640680529312,
      "longitude_deg": 94.9904850609824,
      "height_km": 35784.818786987686,
      "semi_major_axis_km": 42165.0375305269,
      "eccentricity": 0.0001006,
      "inclination_deg": 0.0493,
      "raan_deg": 73.7141,
      "arg_perigee_deg": 245.4496,
      "mean_anomaly_deg": 291.9546,
      "mean_motion_rev_day": 1.00270695
    },
    {
      "epoch": "2026-05-05T20:12:21.777408Z",
      "apogee_km": 35790.98079718638,
      "perigee_km": 35781.670883791194,
      "latitude_deg": -0.023489536106455725,
      "longitude_deg": 94.99502428004094,
      "height_km": 35783.533902010626,
      "semi_major_axis_km": 42164.462840488784,
      "eccentricity": 0.0001104,
      "inclination_deg": 0.0463,
      "raan_deg": 71.422,
      "arg_perigee_deg": 250.777,
      "mean_anomaly_deg": 299.6155,
      "mean_motion_rev_day": 1.00272745
    }
  ]
}